NORAD_CAT_ID,OBJECT_NAME,OBJECT_TYPE,EPOCH,MEAN_MOTION,ECCENTRICITY,INCLINATION,RA_OF_ASC_NODE,ARG_OF_PERICENTER,MEAN_ANOMALY,BSTAR,MEAN_MOTION_DOT,MEAN_MOTION_DDOT,TLE_LINE0,TLE_LINE1,TLE_LINE2,SEMIMAJOR_AXIS,PERIOD,APOGEE,PERIGEE,DECAYED
44767,STARLINK-1062,PAYLOAD,2020-02-10 22:00:00,15.05550094,0.0001196,53.0392,106.8458,79.5348,217.1534,0.012394,0.00184956,0.0,0 STARLINK-1062,1 44767U 19074BG  20041.91667824 +.00184956 +00000-0 +12394-1 0  9992,2 44767 053.0392 106.8458 0001196 079.5348 217.1534 15.05550094001757,6927.955,95.646,550.648,548.991,0.0
44767,STARLINK-1062,PAYLOAD,2020-02-11 06:00:00,15.05534931,0.0001239,53.0391,105.3506,85.5858,218.7981,0.019384,0.00293852,0.0,0 STARLINK-1062,1 44767U 19074BG  20042.25001157  .00293852  00000-0  19384-1 0  9993,2 44767  53.0391 105.3506 0001239  85.5858 218.7981 15.05534931 14024,6928.001,95.647,550.725,549.008,0.0
44767,STARLINK-1062,PAYLOAD,2020-02-11 14:00:01,15.05562427,0.0001173,53.0389,103.857,72.4743,239.6161,0.0035541,0.0005186,0.0,0 STARLINK-1062,1 44767U 19074BG  20042.58334491  .00051860  00000-0  35541-2 0  9994,2 44767  53.0389 103.8570 0001173  72.4743 239.6161 15.05562427 14078,6927.917,95.645,550.594,548.969,0.0
44767,STARLINK-1062,PAYLOAD,2020-02-11 22:00:00,15.05554138,0.0001129,53.0389,102.3604,80.5473,239.2445,0.010749,0.00159813,0.0,0 STARLINK-1062,1 44767U 19074BG  20042.91667824 +.00159813 +00000-0 +10749-1 0  9999,2 44767 053.0389 102.3604 0001129 080.5473 239.2445 15.05554138001764,6927.941999999999,95.646,550.589,549.025,0.0
44767,STARLINK-1062,PAYLOAD,2020-02-12 12:00:00,15.05577395,0.000113,53.0386,99.7453,72.8545,170.4159,0.00096866,0.00013861,0.0,0 STARLINK-1062,1 44767U 19074BG  20043.50001157  .00013861  00000-0  96866-3 0  9994,2 44767  53.0386  99.7453 0001130  72.8545 170.4159 15.05577395 14210,6927.871,95.644,550.519,548.953,0.0
44767,STARLINK-1062,PAYLOAD,2020-02-12 14:00:01,15.05566546,0.0001113,53.0385,99.3717,71.498,263.6989,0.0025028,0.00036361,0.0,0 STARLINK-1062,1 44767U 19074BG  20043.58334491 +.00036361 +00000-0 +25028-2 0  9993,2 44767 053.0385 099.3717 0001113 071.4980 263.6989 15.05566546001754,6927.904,95.645,550.54,548.998,0.0
44767,STARLINK-1062,PAYLOAD,2020-02-12 22:00:00,15.05555739,0.0001071,53.0384,97.875,81.6107,261.2896,0.008685,0.00128502,0.0,0 STARLINK-1062,1 44767U 19074BG  20043.91667824 +.00128502 +00000-0 +86850-2 0  9998,2 44767 053.0384 097.8750 0001071 081.6107 261.2896 15.05555739001809,6927.937,95.646,550.544,549.06,0.0
44767,STARLINK-1062,PAYLOAD,2020-02-13 12:00:00,15.05575123,0.0001128,53.0383,95.2601,71.1936,195.1855,0.001145,0.0001644,0.0,0 STARLINK-1062,1 44767U 19074BG  20044.50001157  .00016440  00000-0  11450-2 0  9996,2 44767  53.0383  95.2601 0001128  71.1936 195.1855 15.05575123 14366,6927.878000000002,95.645,550.524,548.961,0.0
44767,STARLINK-1062,PAYLOAD,2020-02-13 14:00:01,15.05566243,0.0001097,53.0382,94.8864,69.6648,288.6394,0.0025904,0.0003765,0.0,0 STARLINK-1062,1 44767U 19074BG  20044.58334491 +.00037650 +00000-0 +25904-2 0  9999,2 44767 053.0382 094.8864 0001097 069.6648 288.6394 15.05566243001756,6927.905,95.645,550.53,549.01,0.0
44767,STARLINK-1062,PAYLOAD,2020-02-13 22:00:00,15.05552403,0.0001052,53.0383,93.3896,80.1856,285.8236,0.0086856,0.001285,0.0,0 STARLINK-1062,1 44767U 19074BG  20044.91667824 +.00128500 +00000-0 +86856-2 0  9993,2 44767 053.0383 093.3896 0001052 080.1856 285.8236 15.05552403001764,6927.948,95.646,550.5409999999998,549.0840000000002,0.0
44767,STARLINK-1062,PAYLOAD,2020-02-14 14:00:01,15.05568571,0.0001117,53.0357,90.4009,65.6819,315.7325,0.0026313,0.00038254,0.0,0 STARLINK-1062,1 44767U 19074BG  20045.58334491  .00038254  00000-0  26313-2 0  9996,2 44767  53.0357  90.4009 0001117  65.6819 315.7325 15.05568571 14521,6927.898,95.645,550.5369999999998,548.989,0.0
44767,STARLINK-1062,PAYLOAD,2020-02-14 22:00:01,15.05496566,0.0001124,53.0359,88.9039,78.69800000000002,310.493,0.028825,0.00441765,0.0,0 STARLINK-1062,1 44767U 19074BG  20045.91668981  .00441765  00000-0  28825-1 0  9991,2 44767  53.0359  88.9039 0001124  78.6980 310.4930 15.05496566 14572,6928.119000000002,95.65,550.763,549.205,0.0
44767,STARLINK-1062,PAYLOAD,2020-02-15 06:00:00,15.0560658,0.0001124,53.0361,87.4095,73.0541,323.7576,-0.0022637,-0.0003313,0.0,0 STARLINK-1062,1 44767U 19074BG  20046.25001157 -.00033130  00000-0 -22637-2 0  9996,2 44767  53.0361  87.4095 0001124  73.0541 323.7576 15.05606580 14621,6927.781,95.643,550.425,548.868,0.0
44767,STARLINK-1062,PAYLOAD,2020-02-15 14:00:01,15.05572699,0.0001165,53.0362,85.9154,61.7515,342.8404,0.0024959,0.00036265,0.0,0 STARLINK-1062,1 44767U 19074BG  20046.58335648 +.00036265 +00000-0 +24959-2 0  9996,2 44767 053.0362 085.9154 0001165 061.7515 342.8404 15.05572699001767,6927.885,95.645,550.557,548.943,0.0
44767,STARLINK-1062,PAYLOAD,2020-02-15 22:00:00,15.05533574,0.0001098,53.0366,84.4186,73.8846,338.3605,0.015623,0.00234779,0.0,0 STARLINK-1062,1 44767U 19074BG  20046.91667824  .00234779  00000-0  15623-1 0  9994,2 44767  53.0366  84.4186 0001098  73.8846 338.3605 15.05533574 14728,6928.005,95.647,550.631,549.11,0.0
44767,STARLINK-1062,PAYLOAD,2020-02-16 06:00:00,15.05609605,0.0001163,53.0368,82.9243,68.82,351.1164,-0.0023431,-0.0003428,0.0,0 STARLINK-1062,1 44767U 19074BG  20047.25001157 -.00034280  00000-0 -23431-2 0  9997,2 44767  53.0368  82.9243 0001163  68.8200 351.1164 15.05609605 14775,6927.772,95.642,550.443,548.831,0.0
44767,STARLINK-1062,PAYLOAD,2020-02-16 14:00:01,15.05579778,0.0001209,53.0368,81.4301,58.9273,8.729,0.0021187,0.00030724,0.0,0 STARLINK-1062,1 44767U 19074BG  20047.58334491 +.00030724 +00000-0 +21187-2 0  9996,2 44767 053.0368 081.4301 0001209 058.9273 008.7290 15.05579778001762,6927.864000000001,95.644,550.566,548.891,0.0
44767,STARLINK-1062,PAYLOAD,2020-02-16 20:00:01,15.05571836,0.0001163,53.0372,80.3074,68.8013,274.6406,0.0078868,0.00116518,0.0,0 STARLINK-1062,1 44767U 19074BG  20047.83334491  .00116518  00000-0  78868-2 0  9998,2 44767  53.0372  80.3074 0001163  68.8013 274.6406 15.05571836 14868,6927.888000000001,95.645,550.559,548.947,0.0
44767,STARLINK-1062,PAYLOAD,2020-02-17 06:00:00,15.05616262,0.0001196,53.0345,78.4391,66.2577,16.8248,-0.0020671,-0.00030297,0.0,0 STARLINK-1062,1 44767U 19074BG  20048.25001157 -.00030297  00000-0 -20671-2 0  9995,2 44767  53.0345  78.4391 0001196  66.2577  16.8248 15.05616262 14921,6927.752,95.642,550.445,548.788,0.0
44767,STARLINK-1062,PAYLOAD,2020-02-17 14:00:01,15.055867499999998,0.0001217,53.0343,76.9447,57.2136,33.5827,0.0015532,0.00022427,0.0,0 STARLINK-1062,1 44767U 19074BG  20048.58334491 +.00022427 +00000-0 +15532-2 0  9995,2 44767 053.0343 076.9447 0001217 057.2136 033.5827 15.05586750001764,6927.842,95.644,550.55,548.864,0.0
44767,STARLINK-1062,PAYLOAD,2020-02-17 22:00:00,15.05549822,0.000108,53.0345,75.4479,70.3591,28.1625,0.010878,0.00161761,0.0,0 STARLINK-1062,1 44767U 19074BG  20048.91667824  .00161761  00000-0  10878-1 0  9993,2 44767  53.0345  75.4479 0001080  70.3591  28.1625 15.05549822 15023,6927.955,95.646,550.569,549.072,0.0
44767,STARLINK-1062,PAYLOAD,2020-02-18 06:00:00,15.05612168,0.0001175,53.0344,73.9538,65.0931,41.1291,-0.0023596,-0.0003452,0.0,0 STARLINK-1062,1 44767U 19074BG  20049.25001157 -.00034520  00000-0 -23596-2 0  9998,2 44767  53.0344  73.9538 0001175  65.0931  41.1291 15.05612168 15078,6927.764,95.642,550.443,548.815,0.0
44767,STARLINK-1062,PAYLOAD,2020-02-18 08:00:01,15.05601017,0.0001217,53.0343,73.5804,62.0256,136.1312,-0.0012229,-0.00018061,0.0,0 STARLINK-1062,1 44767U 19074BG  20049.33334491 -.00018061 +00000-0 -12229-2 0  9990,2 44767 053.0343 073.5804 0001217 062.0256 136.1312 15.05601017001775,6927.7980000000025,95.643,550.507,548.82,0.0
44767,STARLINK-1062,PAYLOAD,2020-02-18 20:00:01,15.05589967,0.0001107,53.0343,71.3364,66.8005,322.9351,0.00044669,6.236e-05,0.0,0 STARLINK-1062,1 44767U 19074BG  20049.83334491  .00006236  00000-0  44669-3 0  9998,2 44767  53.0343  71.3364 0001107  66.8005 322.9351 15.05589967 15169,6927.831999999999,95.644,550.464,548.93,0.0
44767,STARLINK-1062,PAYLOAD,2020-02-19 14:00:01,15.05598352,0.0001246,53.0336,67.9735,56.8105,80.2848,0.00040041,5.562e-05,0.0,0 STARLINK-1062,1 44767U 19074BG  20050.58334491 +.00005562 +00000-0 +40041-3 0  9993,2 44767 053.0336 067.9735 0001246 056.8105 080.2848 15.05598352001751,6927.807,95.643,550.535,548.808,0.0
44767,STARLINK-1062,PAYLOAD,2020-02-19 18:10:25,15.05584664,9.68e-05,53.0368,67.1926,82.3259,277.784,-3.5981999999999995e-05,-8.03e-06,0.0,0 STARLINK-1062,1 44767U 19074BG  20050.75724045 -.00000803  00000-0 -35982-4 0  9994,2 44767  53.0368  67.1926 0000968  82.3259 277.7840 15.05584664 15306,6927.849,95.644,550.384,549.043,0.0
44767,STARLINK-1062,PAYLOAD,2020-02-19 21:21:33,15.05623013,0.0001028,53.0369,66.5969,67.6197,292.49,0.00026672,3.613e-05,0.0,0 STARLINK-1062,1 44767U 19074BG  20050.88997330 +.00003613 +00000-0 +26672-3 0  9992,2 44767 053.0369 066.5969 0001028 067.6197 292.4900 15.05623013015158,6927.731,95.641,550.308,548.884,0.0
44767,STARLINK-1062,PAYLOAD,2020-02-20 06:00:00,15.05612071,0.0001272,53.0335,64.9828,62.2366,90.2994,-0.0019703,-0.00028894,0.0,0 STARLINK-1062,1 44767U 19074BG  20051.25001157 -.00028894  00000-0 -19703-2 0  9993,2 44767  53.0335  64.9828 0001272  62.2366  90.2994 15.05612071 15381,6927.764,95.642,550.511,548.748,0.0
44767,STARLINK-1062,PAYLOAD,2020-02-20 13:17:28,15.0560608,5.75e-05,53.0373,63.6202,104.9704,255.1348,0.0002092,2.772e-05,0.0,0 STARLINK-1062,1 44767U 19074BG  20051.55380338 +.00002772 +00000-0 +20920-3 0  9996,2 44767 053.0373 063.6202 0000575 104.9704 255.1348 15.05606080015254,6927.783,95.643,550.0459999999998,549.25,0.0
44767,STARLINK-1062,PAYLOAD,2020-02-20 22:00:00,15.05488376,0.0001348,53.0335,61.9908,70.9977,96.9716,0.024066,0.00368362,0.0,0 STARLINK-1062,1 44767U 19074BG  20051.91667824  .00368362  00000-0  24066-1 0  9997,2 44767  53.0335  61.9908 0001348  70.9977  96.9716 15.05488376 15480,6928.144,95.65,550.943,549.075,0.0
